     2.11           N: GPS NAV DATA                         RINEX VERSION / TYPE
teqc  2019Feb25                         20221121 12:27:40UTCPGM / RUN BY / DATE
OSX ker:10.11.6|Core i5|gcc 4.3 -m64|OSX ker:10.10+|=+      COMMENT
    8.3819D-09  1.4901D-08 -5.9605D-08 -5.9605D-08          ION ALPHA
    8.3968D+04  1.6384D+04 -1.3107D+05 -6.5536D+04          ION BETA
    4.656612873077D-09 1.598721155460D-14    61440     1551 DELTA-UTC: A0,A1,T,W
                                                            END OF HEADER
 2 09  9 25 23 59 44.0 1.754397526383D-04 3.183231456205D-12 0.000000000000D+00
    4.000000000000D+00 2.140625000000D+01 5.204145344971D-09-1.764060795779D+00
    1.087784767151D-06 9.092930238694D-03 7.929280400276D-06 5.153709949493D+03
    5.183840000000D+05-3.539025783539D-08-2.543458436407D+00-2.272427082062D-07
    9.410213244925D-01 2.168437500000D+02 2.896897356774D+00-8.254272395006D-09
   -1.042900583853D-10 1.000000000000D+00 1.550000000000D+03 0.000000000000D+00
    2.000000000000D+00 0.000000000000D+00-1.722946763039D-08 4.000000000000D+00
    5.137020000000D+05 4.000000000000D+00
20 09  9 25 23 59 28.0 7.142033427954D-05-9.094947017729D-13 0.000000000000D+00
    9.500000000000D+01 6.087500000000D+01 5.039852787241D-09 8.246428689998D-01
    3.157183527946D-06 3.839798504487D-03 7.126480340958D-06 5.153770069122D+03
    5.183680000000D+05-5.401670932770D-08-1.508536082572D+00 5.587935447693D-08
    9.400568708791D-01 2.310000000000D+02 1.315304034778D+00-8.334632885200D-09
   -2.128660095809D-10 1.000000000000D+00 1.550000000000D+03 0.000000000000D+00
    2.000000000000D+00 0.000000000000D+00-7.450580596924D-09 9.500000000000D+01
    5.112180000000D+05 4.000000000000D+00
